[{"name":"Afghanistan","code":"AF","emoji":"\ud83c\udde6\ud83c\uddeb","unicode":"U+1F1E6 U+1F1EB","image":"https:\/\/cdn.jsdelivr.net\/npm\/country-flag-emoji-json@2.0.0\/dist\/images\/AF.svg","dial_code":"+93"},{"name":"Albania","code":"AL","emoji":"\ud83c\udde6\ud83c\uddf1","unicode":"U+1F1E6 U+1F1F1","image":"https:\/\/cdn.jsdelivr.net\/npm\/country-flag-emoji-json@2.0.0\/dist\/images\/AL.svg","dial_code":"+355"},{"name":"Algeria","code":"DZ","emoji":"\ud83c\udde9\ud83c\uddff","unicode":"U+1F1E9 U+1F1FF","image":"https:\/\/cdn.jsdelivr.net\/npm\/country-flag-emoji-json@2.0.0\/dist\/images\/DZ.svg","dial_code":"+213"},{"name":"Andorra","code":"AD","emoji":"\ud83c\udde6\ud83c\udde9","unicode":"U+1F1E6 U+1F1E9","image":"https:\/\/cdn.jsdelivr.net\/npm\/country-flag-emoji-json@2.0.0\/dist\/images\/AD.svg","dial_code":"+376"},{"name":"Angola","code":"AO","emoji":"\ud83c\udde6\ud83c\uddf4","unicode":"U+1F1E6 U+1F1F4","image":"https:\/\/cdn.jsdelivr.net\/npm\/country-flag-emoji-json@2.0.0\/dist\/images\/AO.svg","dial_code":"+244"},{"name":"Anguilla","code":"AI","emoji":"\ud83c\udde6\ud83c\uddee","unicode":"U+1F1E6 U+1F1EE","image":"https:\/\/cdn.jsdelivr.net\/npm\/country-flag-emoji-json@2.0.0\/dist\/images\/AI.svg","dial_code":"+1264"},{"name":"Antarctica","code":"AQ","emoji":"\ud83c\udde6\ud83c\uddf6","unicode":"U+1F1E6 U+1F1F6","image":"https:\/\/cdn.jsdelivr.net\/npm\/country-flag-emoji-json@2.0.0\/dist\/images\/AQ.svg","dial_code":"+672"},{"name":"Argentina","code":"AR","emoji":"\ud83c\udde6\ud83c\uddf7","unicode":"U+1F1E6 U+1F1F7","image":"https:\/\/cdn.jsdelivr.net\/npm\/country-flag-emoji-json@2.0.0\/dist\/images\/AR.svg","dial_code":"+54"},{"name":"Armenia","code":"AM","emoji":"\ud83c\udde6\ud83c\uddf2","unicode":"U+1F1E6 U+1F1F2","image":"https:\/\/cdn.jsdelivr.net\/npm\/country-flag-emoji-json@2.0.0\/dist\/images\/AM.svg","dial_code":"+374"},{"name":"Aruba","code":"AW","emoji":"\ud83c\udde6\ud83c\uddfc","unicode":"U+1F1E6 U+1F1FC","image":"https:\/\/cdn.jsdelivr.net\/npm\/country-flag-emoji-json@2.0.0\/dist\/images\/AW.svg","dial_code":"+297"},{"name":"Australia","code":"AU","emoji":"\ud83c\udde6\ud83c\uddfa","unicode":"U+1F1E6 U+1F1FA","image":"https:\/\/cdn.jsdelivr.net\/npm\/country-flag-emoji-json@2.0.0\/dist\/images\/AU.svg","dial_code":"+61"},{"name":"Austria","code":"AT","emoji":"\ud83c\udde6\ud83c\uddf9","unicode":"U+1F1E6 U+1F1F9","image":"https:\/\/cdn.jsdelivr.net\/npm\/country-flag-emoji-json@2.0.0\/dist\/images\/AT.svg","dial_code":"+43"},{"name":"Azerbaijan","code":"AZ","emoji":"\ud83c\udde6\ud83c\uddff","unicode":"U+1F1E6 U+1F1FF","image":"https:\/\/cdn.jsdelivr.net\/npm\/country-flag-emoji-json@2.0.0\/dist\/images\/AZ.svg","dial_code":"+994"},{"name":"Bahamas","code":"BS","emoji":"\ud83c\udde7\ud83c\uddf8","unicode":"U+1F1E7 U+1F1F8","image":"https:\/\/cdn.jsdelivr.net\/npm\/country-flag-emoji-json@2.0.0\/dist\/images\/BS.svg","dial_code":"+1242"},{"name":"Bahrain","code":"BH","emoji":"\ud83c\udde7\ud83c\udded","unicode":"U+1F1E7 U+1F1ED","image":"https:\/\/cdn.jsdelivr.net\/npm\/country-flag-emoji-json@2.0.0\/dist\/images\/BH.svg","dial_code":"+973"},{"name":"Bangladesh","code":"BD","emoji":"\ud83c\udde7\ud83c\udde9","unicode":"U+1F1E7 U+1F1E9","image":"https:\/\/cdn.jsdelivr.net\/npm\/country-flag-emoji-json@2.0.0\/dist\/images\/BD.svg","dial_code":"+880"},{"name":"Barbados","code":"BB","emoji":"\ud83c\udde7\ud83c\udde7","unicode":"U+1F1E7 U+1F1E7","image":"https:\/\/cdn.jsdelivr.net\/npm\/country-flag-emoji-json@2.0.0\/dist\/images\/BB.svg","dial_code":"+1246"},{"name":"Belarus","code":"BY","emoji":"\ud83c\udde7\ud83c\uddfe","unicode":"U+1F1E7 U+1F1FE","image":"https:\/\/cdn.jsdelivr.net\/npm\/country-flag-emoji-json@2.0.0\/dist\/images\/BY.svg","dial_code":"+375"},{"name":"Belgium","code":"BE","emoji":"\ud83c\udde7\ud83c\uddea","unicode":"U+1F1E7 U+1F1EA","image":"https:\/\/cdn.jsdelivr.net\/npm\/country-flag-emoji-json@2.0.0\/dist\/images\/BE.svg","dial_code":"+32"},{"name":"Belize","code":"BZ","emoji":"\ud83c\udde7\ud83c\uddff","unicode":"U+1F1E7 U+1F1FF","image":"https:\/\/cdn.jsdelivr.net\/npm\/country-flag-emoji-json@2.0.0\/dist\/images\/BZ.svg","dial_code":"+501"},{"name":"Benin","code":"BJ","emoji":"\ud83c\udde7\ud83c\uddef","unicode":"U+1F1E7 U+1F1EF","image":"https:\/\/cdn.jsdelivr.net\/npm\/country-flag-emoji-json@2.0.0\/dist\/images\/BJ.svg","dial_code":"+229"},{"name":"Bermuda","code":"BM","emoji":"\ud83c\udde7\ud83c\uddf2","unicode":"U+1F1E7 U+1F1F2","image":"https:\/\/cdn.jsdelivr.net\/npm\/country-flag-emoji-json@2.0.0\/dist\/images\/BM.svg","dial_code":"+1441"},{"name":"Bhutan","code":"BT","emoji":"\ud83c\udde7\ud83c\uddf9","unicode":"U+1F1E7 U+1F1F9","image":"https:\/\/cdn.jsdelivr.net\/npm\/country-flag-emoji-json@2.0.0\/dist\/images\/BT.svg","dial_code":"+975"},{"name":"Botswana","code":"BW","emoji":"\ud83c\udde7\ud83c\uddfc","unicode":"U+1F1E7 U+1F1FC","image":"https:\/\/cdn.jsdelivr.net\/npm\/country-flag-emoji-json@2.0.0\/dist\/images\/BW.svg","dial_code":"+267"},{"name":"Brazil","code":"BR","emoji":"\ud83c\udde7\ud83c\uddf7","unicode":"U+1F1E7 U+1F1F7","image":"https:\/\/cdn.jsdelivr.net\/npm\/country-flag-emoji-json@2.0.0\/dist\/images\/BR.svg","dial_code":"+55"},{"name":"British Indian Ocean Territory","code":"IO","emoji":"\ud83c\uddee\ud83c\uddf4","unicode":"U+1F1EE U+1F1F4","image":"https:\/\/cdn.jsdelivr.net\/npm\/country-flag-emoji-json@2.0.0\/dist\/images\/IO.svg","dial_code":"+246"},{"name":"Bulgaria","code":"BG","emoji":"\ud83c\udde7\ud83c\uddec","unicode":"U+1F1E7 U+1F1EC","image":"https:\/\/cdn.jsdelivr.net\/npm\/country-flag-emoji-json@2.0.0\/dist\/images\/BG.svg","dial_code":"+359"},{"name":"Burkina Faso","code":"BF","emoji":"\ud83c\udde7\ud83c\uddeb","unicode":"U+1F1E7 U+1F1EB","image":"https:\/\/cdn.jsdelivr.net\/npm\/country-flag-emoji-json@2.0.0\/dist\/images\/BF.svg","dial_code":"+226"},{"name":"Burundi","code":"BI","emoji":"\ud83c\udde7\ud83c\uddee","unicode":"U+1F1E7 U+1F1EE","image":"https:\/\/cdn.jsdelivr.net\/npm\/country-flag-emoji-json@2.0.0\/dist\/images\/BI.svg","dial_code":"+257"},{"name":"Cambodia","code":"KH","emoji":"\ud83c\uddf0\ud83c\udded","unicode":"U+1F1F0 U+1F1ED","image":"https:\/\/cdn.jsdelivr.net\/npm\/country-flag-emoji-json@2.0.0\/dist\/images\/KH.svg","dial_code":"+855"},{"name":"Cameroon","code":"CM","emoji":"\ud83c\udde8\ud83c\uddf2","unicode":"U+1F1E8 U+1F1F2","image":"https:\/\/cdn.jsdelivr.net\/npm\/country-flag-emoji-json@2.0.0\/dist\/images\/CM.svg","dial_code":"+237"},{"name":"Canada","code":"CA","emoji":"\ud83c\udde8\ud83c\udde6","unicode":"U+1F1E8 U+1F1E6","image":"https:\/\/cdn.jsdelivr.net\/npm\/country-flag-emoji-json@2.0.0\/dist\/images\/CA.svg","dial_code":"+1"},{"name":"Cape Verde","code":"CV","emoji":"\ud83c\udde8\ud83c\uddfb","unicode":"U+1F1E8 U+1F1FB","image":"https:\/\/cdn.jsdelivr.net\/npm\/country-flag-emoji-json@2.0.0\/dist\/images\/CV.svg","dial_code":"+238"},{"name":"Cayman Islands","code":"KY","emoji":"\ud83c\uddf0\ud83c\uddfe","unicode":"U+1F1F0 U+1F1FE","image":"https:\/\/cdn.jsdelivr.net\/npm\/country-flag-emoji-json@2.0.0\/dist\/images\/KY.svg","dial_code":"+ 345"},{"name":"Central African Republic","code":"CF","emoji":"\ud83c\udde8\ud83c\uddeb","unicode":"U+1F1E8 U+1F1EB","image":"https:\/\/cdn.jsdelivr.net\/npm\/country-flag-emoji-json@2.0.0\/dist\/images\/CF.svg","dial_code":"+236"},{"name":"Chad","code":"TD","emoji":"\ud83c\uddf9\ud83c\udde9","unicode":"U+1F1F9 U+1F1E9","image":"https:\/\/cdn.jsdelivr.net\/npm\/country-flag-emoji-json@2.0.0\/dist\/images\/TD.svg","dial_code":"+235"},{"name":"Chile","code":"CL","emoji":"\ud83c\udde8\ud83c\uddf1","unicode":"U+1F1E8 U+1F1F1","image":"https:\/\/cdn.jsdelivr.net\/npm\/country-flag-emoji-json@2.0.0\/dist\/images\/CL.svg","dial_code":"+56"},{"name":"China","code":"CN","emoji":"\ud83c\udde8\ud83c\uddf3","unicode":"U+1F1E8 U+1F1F3","image":"https:\/\/cdn.jsdelivr.net\/npm\/country-flag-emoji-json@2.0.0\/dist\/images\/CN.svg","dial_code":"+86"},{"name":"Christmas Island","code":"CX","emoji":"\ud83c\udde8\ud83c\uddfd","unicode":"U+1F1E8 U+1F1FD","image":"https:\/\/cdn.jsdelivr.net\/npm\/country-flag-emoji-json@2.0.0\/dist\/images\/CX.svg","dial_code":"+61"},{"name":"Cocos (Keeling) Islands","code":"CC","emoji":"\ud83c\udde8\ud83c\udde8","unicode":"U+1F1E8 U+1F1E8","image":"https:\/\/cdn.jsdelivr.net\/npm\/country-flag-emoji-json@2.0.0\/dist\/images\/CC.svg","dial_code":"+61"},{"name":"Colombia","code":"CO","emoji":"\ud83c\udde8\ud83c\uddf4","unicode":"U+1F1E8 U+1F1F4","image":"https:\/\/cdn.jsdelivr.net\/npm\/country-flag-emoji-json@2.0.0\/dist\/images\/CO.svg","dial_code":"+57"},{"name":"Comoros","code":"KM","emoji":"\ud83c\uddf0\ud83c\uddf2","unicode":"U+1F1F0 U+1F1F2","image":"https:\/\/cdn.jsdelivr.net\/npm\/country-flag-emoji-json@2.0.0\/dist\/images\/KM.svg","dial_code":"+269"},{"name":"Cook Islands","code":"CK","emoji":"\ud83c\udde8\ud83c\uddf0","unicode":"U+1F1E8 U+1F1F0","image":"https:\/\/cdn.jsdelivr.net\/npm\/country-flag-emoji-json@2.0.0\/dist\/images\/CK.svg","dial_code":"+682"},{"name":"Costa Rica","code":"CR","emoji":"\ud83c\udde8\ud83c\uddf7","unicode":"U+1F1E8 U+1F1F7","image":"https:\/\/cdn.jsdelivr.net\/npm\/country-flag-emoji-json@2.0.0\/dist\/images\/CR.svg","dial_code":"+506"},{"name":"Croatia","code":"HR","emoji":"\ud83c\udded\ud83c\uddf7","unicode":"U+1F1ED U+1F1F7","image":"https:\/\/cdn.jsdelivr.net\/npm\/country-flag-emoji-json@2.0.0\/dist\/images\/HR.svg","dial_code":"+385"},{"name":"Cuba","code":"CU","emoji":"\ud83c\udde8\ud83c\uddfa","unicode":"U+1F1E8 U+1F1FA","image":"https:\/\/cdn.jsdelivr.net\/npm\/country-flag-emoji-json@2.0.0\/dist\/images\/CU.svg","dial_code":"+53"},{"name":"Cyprus","code":"CY","emoji":"\ud83c\udde8\ud83c\uddfe","unicode":"U+1F1E8 U+1F1FE","image":"https:\/\/cdn.jsdelivr.net\/npm\/country-flag-emoji-json@2.0.0\/dist\/images\/CY.svg","dial_code":"+357"},{"name":"Denmark","code":"DK","emoji":"\ud83c\udde9\ud83c\uddf0","unicode":"U+1F1E9 U+1F1F0","image":"https:\/\/cdn.jsdelivr.net\/npm\/country-flag-emoji-json@2.0.0\/dist\/images\/DK.svg","dial_code":"+45"},{"name":"Djibouti","code":"DJ","emoji":"\ud83c\udde9\ud83c\uddef","unicode":"U+1F1E9 U+1F1EF","image":"https:\/\/cdn.jsdelivr.net\/npm\/country-flag-emoji-json@2.0.0\/dist\/images\/DJ.svg","dial_code":"+253"},{"name":"Dominica","code":"DM","emoji":"\ud83c\udde9\ud83c\uddf2","unicode":"U+1F1E9 U+1F1F2","image":"https:\/\/cdn.jsdelivr.net\/npm\/country-flag-emoji-json@2.0.0\/dist\/images\/DM.svg","dial_code":"+1767"},{"name":"Dominican Republic","code":"DO","emoji":"\ud83c\udde9\ud83c\uddf4","unicode":"U+1F1E9 U+1F1F4","image":"https:\/\/cdn.jsdelivr.net\/npm\/country-flag-emoji-json@2.0.0\/dist\/images\/DO.svg","dial_code":"+1849"},{"name":"Ecuador","code":"EC","emoji":"\ud83c\uddea\ud83c\udde8","unicode":"U+1F1EA U+1F1E8","image":"https:\/\/cdn.jsdelivr.net\/npm\/country-flag-emoji-json@2.0.0\/dist\/images\/EC.svg","dial_code":"+593"},{"name":"Egypt","code":"EG","emoji":"\ud83c\uddea\ud83c\uddec","unicode":"U+1F1EA U+1F1EC","image":"https:\/\/cdn.jsdelivr.net\/npm\/country-flag-emoji-json@2.0.0\/dist\/images\/EG.svg","dial_code":"+20"},{"name":"El Salvador","code":"SV","emoji":"\ud83c\uddf8\ud83c\uddfb","unicode":"U+1F1F8 U+1F1FB","image":"https:\/\/cdn.jsdelivr.net\/npm\/country-flag-emoji-json@2.0.0\/dist\/images\/SV.svg","dial_code":"+503"},{"name":"Equatorial Guinea","code":"GQ","emoji":"\ud83c\uddec\ud83c\uddf6","unicode":"U+1F1EC U+1F1F6","image":"https:\/\/cdn.jsdelivr.net\/npm\/country-flag-emoji-json@2.0.0\/dist\/images\/GQ.svg","dial_code":"+240"},{"name":"Eritrea","code":"ER","emoji":"\ud83c\uddea\ud83c\uddf7","unicode":"U+1F1EA U+1F1F7","image":"https:\/\/cdn.jsdelivr.net\/npm\/country-flag-emoji-json@2.0.0\/dist\/images\/ER.svg","dial_code":"+291"},{"name":"Estonia","code":"EE","emoji":"\ud83c\uddea\ud83c\uddea","unicode":"U+1F1EA U+1F1EA","image":"https:\/\/cdn.jsdelivr.net\/npm\/country-flag-emoji-json@2.0.0\/dist\/images\/EE.svg","dial_code":"+372"},{"name":"Ethiopia","code":"ET","emoji":"\ud83c\uddea\ud83c\uddf9","unicode":"U+1F1EA U+1F1F9","image":"https:\/\/cdn.jsdelivr.net\/npm\/country-flag-emoji-json@2.0.0\/dist\/images\/ET.svg","dial_code":"+251"},{"name":"Faroe Islands","code":"FO","emoji":"\ud83c\uddeb\ud83c\uddf4","unicode":"U+1F1EB U+1F1F4","image":"https:\/\/cdn.jsdelivr.net\/npm\/country-flag-emoji-json@2.0.0\/dist\/images\/FO.svg","dial_code":"+298"},{"name":"Fiji","code":"FJ","emoji":"\ud83c\uddeb\ud83c\uddef","unicode":"U+1F1EB U+1F1EF","image":"https:\/\/cdn.jsdelivr.net\/npm\/country-flag-emoji-json@2.0.0\/dist\/images\/FJ.svg","dial_code":"+679"},{"name":"Finland","code":"FI","emoji":"\ud83c\uddeb\ud83c\uddee","unicode":"U+1F1EB U+1F1EE","image":"https:\/\/cdn.jsdelivr.net\/npm\/country-flag-emoji-json@2.0.0\/dist\/images\/FI.svg","dial_code":"+358"},{"name":"France","code":"FR","emoji":"\ud83c\uddeb\ud83c\uddf7","unicode":"U+1F1EB U+1F1F7","image":"https:\/\/cdn.jsdelivr.net\/npm\/country-flag-emoji-json@2.0.0\/dist\/images\/FR.svg","dial_code":"+33"},{"name":"French Guiana","code":"GF","emoji":"\ud83c\uddec\ud83c\uddeb","unicode":"U+1F1EC U+1F1EB","image":"https:\/\/cdn.jsdelivr.net\/npm\/country-flag-emoji-json@2.0.0\/dist\/images\/GF.svg","dial_code":"+594"},{"name":"French Polynesia","code":"PF","emoji":"\ud83c\uddf5\ud83c\uddeb","unicode":"U+1F1F5 U+1F1EB","image":"https:\/\/cdn.jsdelivr.net\/npm\/country-flag-emoji-json@2.0.0\/dist\/images\/PF.svg","dial_code":"+689"},{"name":"Gabon","code":"GA","emoji":"\ud83c\uddec\ud83c\udde6","unicode":"U+1F1EC U+1F1E6","image":"https:\/\/cdn.jsdelivr.net\/npm\/country-flag-emoji-json@2.0.0\/dist\/images\/GA.svg","dial_code":"+241"},{"name":"Gambia","code":"GM","emoji":"\ud83c\uddec\ud83c\uddf2","unicode":"U+1F1EC U+1F1F2","image":"https:\/\/cdn.jsdelivr.net\/npm\/country-flag-emoji-json@2.0.0\/dist\/images\/GM.svg","dial_code":"+220"},{"name":"Georgia","code":"GE","emoji":"\ud83c\uddec\ud83c\uddea","unicode":"U+1F1EC U+1F1EA","image":"https:\/\/cdn.jsdelivr.net\/npm\/country-flag-emoji-json@2.0.0\/dist\/images\/GE.svg","dial_code":"+995"},{"name":"Germany","code":"DE","emoji":"\ud83c\udde9\ud83c\uddea","unicode":"U+1F1E9 U+1F1EA","image":"https:\/\/cdn.jsdelivr.net\/npm\/country-flag-emoji-json@2.0.0\/dist\/images\/DE.svg","dial_code":"+49"},{"name":"Ghana","code":"GH","emoji":"\ud83c\uddec\ud83c\udded","unicode":"U+1F1EC U+1F1ED","image":"https:\/\/cdn.jsdelivr.net\/npm\/country-flag-emoji-json@2.0.0\/dist\/images\/GH.svg","dial_code":"+233"},{"name":"Gibraltar","code":"GI","emoji":"\ud83c\uddec\ud83c\uddee","unicode":"U+1F1EC U+1F1EE","image":"https:\/\/cdn.jsdelivr.net\/npm\/country-flag-emoji-json@2.0.0\/dist\/images\/GI.svg","dial_code":"+350"},{"name":"Greece","code":"GR","emoji":"\ud83c\uddec\ud83c\uddf7","unicode":"U+1F1EC U+1F1F7","image":"https:\/\/cdn.jsdelivr.net\/npm\/country-flag-emoji-json@2.0.0\/dist\/images\/GR.svg","dial_code":"+30"},{"name":"Greenland","code":"GL","emoji":"\ud83c\uddec\ud83c\uddf1","unicode":"U+1F1EC U+1F1F1","image":"https:\/\/cdn.jsdelivr.net\/npm\/country-flag-emoji-json@2.0.0\/dist\/images\/GL.svg","dial_code":"+299"},{"name":"Grenada","code":"GD","emoji":"\ud83c\uddec\ud83c\udde9","unicode":"U+1F1EC U+1F1E9","image":"https:\/\/cdn.jsdelivr.net\/npm\/country-flag-emoji-json@2.0.0\/dist\/images\/GD.svg","dial_code":"+1473"},{"name":"Guadeloupe","code":"GP","emoji":"\ud83c\uddec\ud83c\uddf5","unicode":"U+1F1EC U+1F1F5","image":"https:\/\/cdn.jsdelivr.net\/npm\/country-flag-emoji-json@2.0.0\/dist\/images\/GP.svg","dial_code":"+590"},{"name":"Guam","code":"GU","emoji":"\ud83c\uddec\ud83c\uddfa","unicode":"U+1F1EC U+1F1FA","image":"https:\/\/cdn.jsdelivr.net\/npm\/country-flag-emoji-json@2.0.0\/dist\/images\/GU.svg","dial_code":"+1671"},{"name":"Guatemala","code":"GT","emoji":"\ud83c\uddec\ud83c\uddf9","unicode":"U+1F1EC U+1F1F9","image":"https:\/\/cdn.jsdelivr.net\/npm\/country-flag-emoji-json@2.0.0\/dist\/images\/GT.svg","dial_code":"+502"},{"name":"Guernsey","code":"GG","emoji":"\ud83c\uddec\ud83c\uddec","unicode":"U+1F1EC U+1F1EC","image":"https:\/\/cdn.jsdelivr.net\/npm\/country-flag-emoji-json@2.0.0\/dist\/images\/GG.svg","dial_code":"+44"},{"name":"Guinea","code":"GN","emoji":"\ud83c\uddec\ud83c\uddf3","unicode":"U+1F1EC U+1F1F3","image":"https:\/\/cdn.jsdelivr.net\/npm\/country-flag-emoji-json@2.0.0\/dist\/images\/GN.svg","dial_code":"+224"},{"name":"Guinea-Bissau","code":"GW","emoji":"\ud83c\uddec\ud83c\uddfc","unicode":"U+1F1EC U+1F1FC","image":"https:\/\/cdn.jsdelivr.net\/npm\/country-flag-emoji-json@2.0.0\/dist\/images\/GW.svg","dial_code":"+245"},{"name":"Guyana","code":"GY","emoji":"\ud83c\uddec\ud83c\uddfe","unicode":"U+1F1EC U+1F1FE","image":"https:\/\/cdn.jsdelivr.net\/npm\/country-flag-emoji-json@2.0.0\/dist\/images\/GY.svg","dial_code":"+595"},{"name":"Haiti","code":"HT","emoji":"\ud83c\udded\ud83c\uddf9","unicode":"U+1F1ED U+1F1F9","image":"https:\/\/cdn.jsdelivr.net\/npm\/country-flag-emoji-json@2.0.0\/dist\/images\/HT.svg","dial_code":"+509"},{"name":"Honduras","code":"HN","emoji":"\ud83c\udded\ud83c\uddf3","unicode":"U+1F1ED U+1F1F3","image":"https:\/\/cdn.jsdelivr.net\/npm\/country-flag-emoji-json@2.0.0\/dist\/images\/HN.svg","dial_code":"+504"},{"name":"Hungary","code":"HU","emoji":"\ud83c\udded\ud83c\uddfa","unicode":"U+1F1ED U+1F1FA","image":"https:\/\/cdn.jsdelivr.net\/npm\/country-flag-emoji-json@2.0.0\/dist\/images\/HU.svg","dial_code":"+36"},{"name":"Iceland","code":"IS","emoji":"\ud83c\uddee\ud83c\uddf8","unicode":"U+1F1EE U+1F1F8","image":"https:\/\/cdn.jsdelivr.net\/npm\/country-flag-emoji-json@2.0.0\/dist\/images\/IS.svg","dial_code":"+354"},{"name":"India","code":"IN","emoji":"\ud83c\uddee\ud83c\uddf3","unicode":"U+1F1EE U+1F1F3","image":"https:\/\/cdn.jsdelivr.net\/npm\/country-flag-emoji-json@2.0.0\/dist\/images\/IN.svg","dial_code":"+91"},{"name":"Indonesia","code":"ID","emoji":"\ud83c\uddee\ud83c\udde9","unicode":"U+1F1EE U+1F1E9","image":"https:\/\/cdn.jsdelivr.net\/npm\/country-flag-emoji-json@2.0.0\/dist\/images\/ID.svg","dial_code":"+62"},{"name":"Iraq","code":"IQ","emoji":"\ud83c\uddee\ud83c\uddf6","unicode":"U+1F1EE U+1F1F6","image":"https:\/\/cdn.jsdelivr.net\/npm\/country-flag-emoji-json@2.0.0\/dist\/images\/IQ.svg","dial_code":"+964"},{"name":"Ireland","code":"IE","emoji":"\ud83c\uddee\ud83c\uddea","unicode":"U+1F1EE U+1F1EA","image":"https:\/\/cdn.jsdelivr.net\/npm\/country-flag-emoji-json@2.0.0\/dist\/images\/IE.svg","dial_code":"+353"},{"name":"Isle of Man","code":"IM","emoji":"\ud83c\uddee\ud83c\uddf2","unicode":"U+1F1EE U+1F1F2","image":"https:\/\/cdn.jsdelivr.net\/npm\/country-flag-emoji-json@2.0.0\/dist\/images\/IM.svg","dial_code":"+44"},{"name":"Israel","code":"IL","emoji":"\ud83c\uddee\ud83c\uddf1","unicode":"U+1F1EE U+1F1F1","image":"https:\/\/cdn.jsdelivr.net\/npm\/country-flag-emoji-json@2.0.0\/dist\/images\/IL.svg","dial_code":"+972"},{"name":"Italy","code":"IT","emoji":"\ud83c\uddee\ud83c\uddf9","unicode":"U+1F1EE U+1F1F9","image":"https:\/\/cdn.jsdelivr.net\/npm\/country-flag-emoji-json@2.0.0\/dist\/images\/IT.svg","dial_code":"+39"},{"name":"Jamaica","code":"JM","emoji":"\ud83c\uddef\ud83c\uddf2","unicode":"U+1F1EF U+1F1F2","image":"https:\/\/cdn.jsdelivr.net\/npm\/country-flag-emoji-json@2.0.0\/dist\/images\/JM.svg","dial_code":"+1876"},{"name":"Japan","code":"JP","emoji":"\ud83c\uddef\ud83c\uddf5","unicode":"U+1F1EF U+1F1F5","image":"https:\/\/cdn.jsdelivr.net\/npm\/country-flag-emoji-json@2.0.0\/dist\/images\/JP.svg","dial_code":"+81"},{"name":"Jersey","code":"JE","emoji":"\ud83c\uddef\ud83c\uddea","unicode":"U+1F1EF U+1F1EA","image":"https:\/\/cdn.jsdelivr.net\/npm\/country-flag-emoji-json@2.0.0\/dist\/images\/JE.svg","dial_code":"+44"},{"name":"Jordan","code":"JO","emoji":"\ud83c\uddef\ud83c\uddf4","unicode":"U+1F1EF U+1F1F4","image":"https:\/\/cdn.jsdelivr.net\/npm\/country-flag-emoji-json@2.0.0\/dist\/images\/JO.svg","dial_code":"+962"},{"name":"Kazakhstan","code":"KZ","emoji":"\ud83c\uddf0\ud83c\uddff","unicode":"U+1F1F0 U+1F1FF","image":"https:\/\/cdn.jsdelivr.net\/npm\/country-flag-emoji-json@2.0.0\/dist\/images\/KZ.svg","dial_code":"+77"},{"name":"Kenya","code":"KE","emoji":"\ud83c\uddf0\ud83c\uddea","unicode":"U+1F1F0 U+1F1EA","image":"https:\/\/cdn.jsdelivr.net\/npm\/country-flag-emoji-json@2.0.0\/dist\/images\/KE.svg","dial_code":"+254"},{"name":"Kiribati","code":"KI","emoji":"\ud83c\uddf0\ud83c\uddee","unicode":"U+1F1F0 U+1F1EE","image":"https:\/\/cdn.jsdelivr.net\/npm\/country-flag-emoji-json@2.0.0\/dist\/images\/KI.svg","dial_code":"+686"},{"name":"Kuwait","code":"KW","emoji":"\ud83c\uddf0\ud83c\uddfc","unicode":"U+1F1F0 U+1F1FC","image":"https:\/\/cdn.jsdelivr.net\/npm\/country-flag-emoji-json@2.0.0\/dist\/images\/KW.svg","dial_code":"+965"},{"name":"Kyrgyzstan","code":"KG","emoji":"\ud83c\uddf0\ud83c\uddec","unicode":"U+1F1F0 U+1F1EC","image":"https:\/\/cdn.jsdelivr.net\/npm\/country-flag-emoji-json@2.0.0\/dist\/images\/KG.svg","dial_code":"+996"},{"name":"Laos","code":"LA","emoji":"\ud83c\uddf1\ud83c\udde6","unicode":"U+1F1F1 U+1F1E6","image":"https:\/\/cdn.jsdelivr.net\/npm\/country-flag-emoji-json@2.0.0\/dist\/images\/LA.svg","dial_code":"+856"},{"name":"Latvia","code":"LV","emoji":"\ud83c\uddf1\ud83c\uddfb","unicode":"U+1F1F1 U+1F1FB","image":"https:\/\/cdn.jsdelivr.net\/npm\/country-flag-emoji-json@2.0.0\/dist\/images\/LV.svg","dial_code":"+371"},{"name":"Lebanon","code":"LB","emoji":"\ud83c\uddf1\ud83c\udde7","unicode":"U+1F1F1 U+1F1E7","image":"https:\/\/cdn.jsdelivr.net\/npm\/country-flag-emoji-json@2.0.0\/dist\/images\/LB.svg","dial_code":"+961"},{"name":"Lesotho","code":"LS","emoji":"\ud83c\uddf1\ud83c\uddf8","unicode":"U+1F1F1 U+1F1F8","image":"https:\/\/cdn.jsdelivr.net\/npm\/country-flag-emoji-json@2.0.0\/dist\/images\/LS.svg","dial_code":"+266"},{"name":"Liberia","code":"LR","emoji":"\ud83c\uddf1\ud83c\uddf7","unicode":"U+1F1F1 U+1F1F7","image":"https:\/\/cdn.jsdelivr.net\/npm\/country-flag-emoji-json@2.0.0\/dist\/images\/LR.svg","dial_code":"+231"},{"name":"Liechtenstein","code":"LI","emoji":"\ud83c\uddf1\ud83c\uddee","unicode":"U+1F1F1 U+1F1EE","image":"https:\/\/cdn.jsdelivr.net\/npm\/country-flag-emoji-json@2.0.0\/dist\/images\/LI.svg","dial_code":"+423"},{"name":"Lithuania","code":"LT","emoji":"\ud83c\uddf1\ud83c\uddf9","unicode":"U+1F1F1 U+1F1F9","image":"https:\/\/cdn.jsdelivr.net\/npm\/country-flag-emoji-json@2.0.0\/dist\/images\/LT.svg","dial_code":"+370"},{"name":"Luxembourg","code":"LU","emoji":"\ud83c\uddf1\ud83c\uddfa","unicode":"U+1F1F1 U+1F1FA","image":"https:\/\/cdn.jsdelivr.net\/npm\/country-flag-emoji-json@2.0.0\/dist\/images\/LU.svg","dial_code":"+352"},{"name":"Madagascar","code":"MG","emoji":"\ud83c\uddf2\ud83c\uddec","unicode":"U+1F1F2 U+1F1EC","image":"https:\/\/cdn.jsdelivr.net\/npm\/country-flag-emoji-json@2.0.0\/dist\/images\/MG.svg","dial_code":"+261"},{"name":"Malawi","code":"MW","emoji":"\ud83c\uddf2\ud83c\uddfc","unicode":"U+1F1F2 U+1F1FC","image":"https:\/\/cdn.jsdelivr.net\/npm\/country-flag-emoji-json@2.0.0\/dist\/images\/MW.svg","dial_code":"+265"},{"name":"Malaysia","code":"MY","emoji":"\ud83c\uddf2\ud83c\uddfe","unicode":"U+1F1F2 U+1F1FE","image":"https:\/\/cdn.jsdelivr.net\/npm\/country-flag-emoji-json@2.0.0\/dist\/images\/MY.svg","dial_code":"+60"},{"name":"Maldives","code":"MV","emoji":"\ud83c\uddf2\ud83c\uddfb","unicode":"U+1F1F2 U+1F1FB","image":"https:\/\/cdn.jsdelivr.net\/npm\/country-flag-emoji-json@2.0.0\/dist\/images\/MV.svg","dial_code":"+960"},{"name":"Mali","code":"ML","emoji":"\ud83c\uddf2\ud83c\uddf1","unicode":"U+1F1F2 U+1F1F1","image":"https:\/\/cdn.jsdelivr.net\/npm\/country-flag-emoji-json@2.0.0\/dist\/images\/ML.svg","dial_code":"+223"},{"name":"Malta","code":"MT","emoji":"\ud83c\uddf2\ud83c\uddf9","unicode":"U+1F1F2 U+1F1F9","image":"https:\/\/cdn.jsdelivr.net\/npm\/country-flag-emoji-json@2.0.0\/dist\/images\/MT.svg","dial_code":"+356"},{"name":"Marshall Islands","code":"MH","emoji":"\ud83c\uddf2\ud83c\udded","unicode":"U+1F1F2 U+1F1ED","image":"https:\/\/cdn.jsdelivr.net\/npm\/country-flag-emoji-json@2.0.0\/dist\/images\/MH.svg","dial_code":"+692"},{"name":"Martinique","code":"MQ","emoji":"\ud83c\uddf2\ud83c\uddf6","unicode":"U+1F1F2 U+1F1F6","image":"https:\/\/cdn.jsdelivr.net\/npm\/country-flag-emoji-json@2.0.0\/dist\/images\/MQ.svg","dial_code":"+596"},{"name":"Mauritania","code":"MR","emoji":"\ud83c\uddf2\ud83c\uddf7","unicode":"U+1F1F2 U+1F1F7","image":"https:\/\/cdn.jsdelivr.net\/npm\/country-flag-emoji-json@2.0.0\/dist\/images\/MR.svg","dial_code":"+222"},{"name":"Mauritius","code":"MU","emoji":"\ud83c\uddf2\ud83c\uddfa","unicode":"U+1F1F2 U+1F1FA","image":"https:\/\/cdn.jsdelivr.net\/npm\/country-flag-emoji-json@2.0.0\/dist\/images\/MU.svg","dial_code":"+230"},{"name":"Mayotte","code":"YT","emoji":"\ud83c\uddfe\ud83c\uddf9","unicode":"U+1F1FE U+1F1F9","image":"https:\/\/cdn.jsdelivr.net\/npm\/country-flag-emoji-json@2.0.0\/dist\/images\/YT.svg","dial_code":"+262"},{"name":"Mexico","code":"MX","emoji":"\ud83c\uddf2\ud83c\uddfd","unicode":"U+1F1F2 U+1F1FD","image":"https:\/\/cdn.jsdelivr.net\/npm\/country-flag-emoji-json@2.0.0\/dist\/images\/MX.svg","dial_code":"+52"},{"name":"Moldova","code":"MD","emoji":"\ud83c\uddf2\ud83c\udde9","unicode":"U+1F1F2 U+1F1E9","image":"https:\/\/cdn.jsdelivr.net\/npm\/country-flag-emoji-json@2.0.0\/dist\/images\/MD.svg","dial_code":"+373"},{"name":"Monaco","code":"MC","emoji":"\ud83c\uddf2\ud83c\udde8","unicode":"U+1F1F2 U+1F1E8","image":"https:\/\/cdn.jsdelivr.net\/npm\/country-flag-emoji-json@2.0.0\/dist\/images\/MC.svg","dial_code":"+377"},{"name":"Mongolia","code":"MN","emoji":"\ud83c\uddf2\ud83c\uddf3","unicode":"U+1F1F2 U+1F1F3","image":"https:\/\/cdn.jsdelivr.net\/npm\/country-flag-emoji-json@2.0.0\/dist\/images\/MN.svg","dial_code":"+976"},{"name":"Montenegro","code":"ME","emoji":"\ud83c\uddf2\ud83c\uddea","unicode":"U+1F1F2 U+1F1EA","image":"https:\/\/cdn.jsdelivr.net\/npm\/country-flag-emoji-json@2.0.0\/dist\/images\/ME.svg","dial_code":"+382"},{"name":"Montserrat","code":"MS","emoji":"\ud83c\uddf2\ud83c\uddf8","unicode":"U+1F1F2 U+1F1F8","image":"https:\/\/cdn.jsdelivr.net\/npm\/country-flag-emoji-json@2.0.0\/dist\/images\/MS.svg","dial_code":"+1664"},{"name":"Morocco","code":"MA","emoji":"\ud83c\uddf2\ud83c\udde6","unicode":"U+1F1F2 U+1F1E6","image":"https:\/\/cdn.jsdelivr.net\/npm\/country-flag-emoji-json@2.0.0\/dist\/images\/MA.svg","dial_code":"+212"},{"name":"Mozambique","code":"MZ","emoji":"\ud83c\uddf2\ud83c\uddff","unicode":"U+1F1F2 U+1F1FF","image":"https:\/\/cdn.jsdelivr.net\/npm\/country-flag-emoji-json@2.0.0\/dist\/images\/MZ.svg","dial_code":"+258"},{"name":"Namibia","code":"NA","emoji":"\ud83c\uddf3\ud83c\udde6","unicode":"U+1F1F3 U+1F1E6","image":"https:\/\/cdn.jsdelivr.net\/npm\/country-flag-emoji-json@2.0.0\/dist\/images\/NA.svg","dial_code":"+264"},{"name":"Nauru","code":"NR","emoji":"\ud83c\uddf3\ud83c\uddf7","unicode":"U+1F1F3 U+1F1F7","image":"https:\/\/cdn.jsdelivr.net\/npm\/country-flag-emoji-json@2.0.0\/dist\/images\/NR.svg","dial_code":"+674"},{"name":"Nepal","code":"NP","emoji":"\ud83c\uddf3\ud83c\uddf5","unicode":"U+1F1F3 U+1F1F5","image":"https:\/\/cdn.jsdelivr.net\/npm\/country-flag-emoji-json@2.0.0\/dist\/images\/NP.svg","dial_code":"+977"},{"name":"Netherlands","code":"NL","emoji":"\ud83c\uddf3\ud83c\uddf1","unicode":"U+1F1F3 U+1F1F1","image":"https:\/\/cdn.jsdelivr.net\/npm\/country-flag-emoji-json@2.0.0\/dist\/images\/NL.svg","dial_code":"+31"},{"name":"New Caledonia","code":"NC","emoji":"\ud83c\uddf3\ud83c\udde8","unicode":"U+1F1F3 U+1F1E8","image":"https:\/\/cdn.jsdelivr.net\/npm\/country-flag-emoji-json@2.0.0\/dist\/images\/NC.svg","dial_code":"+687"},{"name":"New Zealand","code":"NZ","emoji":"\ud83c\uddf3\ud83c\uddff","unicode":"U+1F1F3 U+1F1FF","image":"https:\/\/cdn.jsdelivr.net\/npm\/country-flag-emoji-json@2.0.0\/dist\/images\/NZ.svg","dial_code":"+64"},{"name":"Nicaragua","code":"NI","emoji":"\ud83c\uddf3\ud83c\uddee","unicode":"U+1F1F3 U+1F1EE","image":"https:\/\/cdn.jsdelivr.net\/npm\/country-flag-emoji-json@2.0.0\/dist\/images\/NI.svg","dial_code":"+505"},{"name":"Niger","code":"NE","emoji":"\ud83c\uddf3\ud83c\uddea","unicode":"U+1F1F3 U+1F1EA","image":"https:\/\/cdn.jsdelivr.net\/npm\/country-flag-emoji-json@2.0.0\/dist\/images\/NE.svg","dial_code":"+227"},{"name":"Nigeria","code":"NG","emoji":"\ud83c\uddf3\ud83c\uddec","unicode":"U+1F1F3 U+1F1EC","image":"https:\/\/cdn.jsdelivr.net\/npm\/country-flag-emoji-json@2.0.0\/dist\/images\/NG.svg","dial_code":"+234"},{"name":"Niue","code":"NU","emoji":"\ud83c\uddf3\ud83c\uddfa","unicode":"U+1F1F3 U+1F1FA","image":"https:\/\/cdn.jsdelivr.net\/npm\/country-flag-emoji-json@2.0.0\/dist\/images\/NU.svg","dial_code":"+683"},{"name":"Norfolk Island","code":"NF","emoji":"\ud83c\uddf3\ud83c\uddeb","unicode":"U+1F1F3 U+1F1EB","image":"https:\/\/cdn.jsdelivr.net\/npm\/country-flag-emoji-json@2.0.0\/dist\/images\/NF.svg","dial_code":"+672"},{"name":"Northern Mariana Islands","code":"MP","emoji":"\ud83c\uddf2\ud83c\uddf5","unicode":"U+1F1F2 U+1F1F5","image":"https:\/\/cdn.jsdelivr.net\/npm\/country-flag-emoji-json@2.0.0\/dist\/images\/MP.svg","dial_code":"+1670"},{"name":"Norway","code":"NO","emoji":"\ud83c\uddf3\ud83c\uddf4","unicode":"U+1F1F3 U+1F1F4","image":"https:\/\/cdn.jsdelivr.net\/npm\/country-flag-emoji-json@2.0.0\/dist\/images\/NO.svg","dial_code":"+47"},{"name":"Oman","code":"OM","emoji":"\ud83c\uddf4\ud83c\uddf2","unicode":"U+1F1F4 U+1F1F2","image":"https:\/\/cdn.jsdelivr.net\/npm\/country-flag-emoji-json@2.0.0\/dist\/images\/OM.svg","dial_code":"+968"},{"name":"Pakistan","code":"PK","emoji":"\ud83c\uddf5\ud83c\uddf0","unicode":"U+1F1F5 U+1F1F0","image":"https:\/\/cdn.jsdelivr.net\/npm\/country-flag-emoji-json@2.0.0\/dist\/images\/PK.svg","dial_code":"+92"},{"name":"Palau","code":"PW","emoji":"\ud83c\uddf5\ud83c\uddfc","unicode":"U+1F1F5 U+1F1FC","image":"https:\/\/cdn.jsdelivr.net\/npm\/country-flag-emoji-json@2.0.0\/dist\/images\/PW.svg","dial_code":"+680"},{"name":"Panama","code":"PA","emoji":"\ud83c\uddf5\ud83c\udde6","unicode":"U+1F1F5 U+1F1E6","image":"https:\/\/cdn.jsdelivr.net\/npm\/country-flag-emoji-json@2.0.0\/dist\/images\/PA.svg","dial_code":"+507"},{"name":"Papua New Guinea","code":"PG","emoji":"\ud83c\uddf5\ud83c\uddec","unicode":"U+1F1F5 U+1F1EC","image":"https:\/\/cdn.jsdelivr.net\/npm\/country-flag-emoji-json@2.0.0\/dist\/images\/PG.svg","dial_code":"+675"},{"name":"Paraguay","code":"PY","emoji":"\ud83c\uddf5\ud83c\uddfe","unicode":"U+1F1F5 U+1F1FE","image":"https:\/\/cdn.jsdelivr.net\/npm\/country-flag-emoji-json@2.0.0\/dist\/images\/PY.svg","dial_code":"+595"},{"name":"Peru","code":"PE","emoji":"\ud83c\uddf5\ud83c\uddea","unicode":"U+1F1F5 U+1F1EA","image":"https:\/\/cdn.jsdelivr.net\/npm\/country-flag-emoji-json@2.0.0\/dist\/images\/PE.svg","dial_code":"+51"},{"name":"Philippines","code":"PH","emoji":"\ud83c\uddf5\ud83c\udded","unicode":"U+1F1F5 U+1F1ED","image":"https:\/\/cdn.jsdelivr.net\/npm\/country-flag-emoji-json@2.0.0\/dist\/images\/PH.svg","dial_code":"+63"},{"name":"Poland","code":"PL","emoji":"\ud83c\uddf5\ud83c\uddf1","unicode":"U+1F1F5 U+1F1F1","image":"https:\/\/cdn.jsdelivr.net\/npm\/country-flag-emoji-json@2.0.0\/dist\/images\/PL.svg","dial_code":"+48"},{"name":"Portugal","code":"PT","emoji":"\ud83c\uddf5\ud83c\uddf9","unicode":"U+1F1F5 U+1F1F9","image":"https:\/\/cdn.jsdelivr.net\/npm\/country-flag-emoji-json@2.0.0\/dist\/images\/PT.svg","dial_code":"+351"},{"name":"Puerto Rico","code":"PR","emoji":"\ud83c\uddf5\ud83c\uddf7","unicode":"U+1F1F5 U+1F1F7","image":"https:\/\/cdn.jsdelivr.net\/npm\/country-flag-emoji-json@2.0.0\/dist\/images\/PR.svg","dial_code":"+1939"},{"name":"Qatar","code":"QA","emoji":"\ud83c\uddf6\ud83c\udde6","unicode":"U+1F1F6 U+1F1E6","image":"https:\/\/cdn.jsdelivr.net\/npm\/country-flag-emoji-json@2.0.0\/dist\/images\/QA.svg","dial_code":"+974"},{"name":"Romania","code":"RO","emoji":"\ud83c\uddf7\ud83c\uddf4","unicode":"U+1F1F7 U+1F1F4","image":"https:\/\/cdn.jsdelivr.net\/npm\/country-flag-emoji-json@2.0.0\/dist\/images\/RO.svg","dial_code":"+40"},{"name":"Russia","code":"RU","emoji":"\ud83c\uddf7\ud83c\uddfa","unicode":"U+1F1F7 U+1F1FA","image":"https:\/\/cdn.jsdelivr.net\/npm\/country-flag-emoji-json@2.0.0\/dist\/images\/RU.svg","dial_code":"+7"},{"name":"Rwanda","code":"RW","emoji":"\ud83c\uddf7\ud83c\uddfc","unicode":"U+1F1F7 U+1F1FC","image":"https:\/\/cdn.jsdelivr.net\/npm\/country-flag-emoji-json@2.0.0\/dist\/images\/RW.svg","dial_code":"+250"},{"name":"Samoa","code":"WS","emoji":"\ud83c\uddfc\ud83c\uddf8","unicode":"U+1F1FC U+1F1F8","image":"https:\/\/cdn.jsdelivr.net\/npm\/country-flag-emoji-json@2.0.0\/dist\/images\/WS.svg","dial_code":"+685"},{"name":"San Marino","code":"SM","emoji":"\ud83c\uddf8\ud83c\uddf2","unicode":"U+1F1F8 U+1F1F2","image":"https:\/\/cdn.jsdelivr.net\/npm\/country-flag-emoji-json@2.0.0\/dist\/images\/SM.svg","dial_code":"+378"},{"name":"Saudi Arabia","code":"SA","emoji":"\ud83c\uddf8\ud83c\udde6","unicode":"U+1F1F8 U+1F1E6","image":"https:\/\/cdn.jsdelivr.net\/npm\/country-flag-emoji-json@2.0.0\/dist\/images\/SA.svg","dial_code":"+966"},{"name":"Senegal","code":"SN","emoji":"\ud83c\uddf8\ud83c\uddf3","unicode":"U+1F1F8 U+1F1F3","image":"https:\/\/cdn.jsdelivr.net\/npm\/country-flag-emoji-json@2.0.0\/dist\/images\/SN.svg","dial_code":"+221"},{"name":"Serbia","code":"RS","emoji":"\ud83c\uddf7\ud83c\uddf8","unicode":"U+1F1F7 U+1F1F8","image":"https:\/\/cdn.jsdelivr.net\/npm\/country-flag-emoji-json@2.0.0\/dist\/images\/RS.svg","dial_code":"+381"},{"name":"Seychelles","code":"SC","emoji":"\ud83c\uddf8\ud83c\udde8","unicode":"U+1F1F8 U+1F1E8","image":"https:\/\/cdn.jsdelivr.net\/npm\/country-flag-emoji-json@2.0.0\/dist\/images\/SC.svg","dial_code":"+248"},{"name":"Sierra Leone","code":"SL","emoji":"\ud83c\uddf8\ud83c\uddf1","unicode":"U+1F1F8 U+1F1F1","image":"https:\/\/cdn.jsdelivr.net\/npm\/country-flag-emoji-json@2.0.0\/dist\/images\/SL.svg","dial_code":"+232"},{"name":"Singapore","code":"SG","emoji":"\ud83c\uddf8\ud83c\uddec","unicode":"U+1F1F8 U+1F1EC","image":"https:\/\/cdn.jsdelivr.net\/npm\/country-flag-emoji-json@2.0.0\/dist\/images\/SG.svg","dial_code":"+65"},{"name":"Slovakia","code":"SK","emoji":"\ud83c\uddf8\ud83c\uddf0","unicode":"U+1F1F8 U+1F1F0","image":"https:\/\/cdn.jsdelivr.net\/npm\/country-flag-emoji-json@2.0.0\/dist\/images\/SK.svg","dial_code":"+421"},{"name":"Slovenia","code":"SI","emoji":"\ud83c\uddf8\ud83c\uddee","unicode":"U+1F1F8 U+1F1EE","image":"https:\/\/cdn.jsdelivr.net\/npm\/country-flag-emoji-json@2.0.0\/dist\/images\/SI.svg","dial_code":"+386"},{"name":"Solomon Islands","code":"SB","emoji":"\ud83c\uddf8\ud83c\udde7","unicode":"U+1F1F8 U+1F1E7","image":"https:\/\/cdn.jsdelivr.net\/npm\/country-flag-emoji-json@2.0.0\/dist\/images\/SB.svg","dial_code":"+677"},{"name":"Somalia","code":"SO","emoji":"\ud83c\uddf8\ud83c\uddf4","unicode":"U+1F1F8 U+1F1F4","image":"https:\/\/cdn.jsdelivr.net\/npm\/country-flag-emoji-json@2.0.0\/dist\/images\/SO.svg","dial_code":"+252"},{"name":"South Africa","code":"ZA","emoji":"\ud83c\uddff\ud83c\udde6","unicode":"U+1F1FF U+1F1E6","image":"https:\/\/cdn.jsdelivr.net\/npm\/country-flag-emoji-json@2.0.0\/dist\/images\/ZA.svg","dial_code":"+27"},{"name":"South Sudan","code":"SS","emoji":"\ud83c\uddf8\ud83c\uddf8","unicode":"U+1F1F8 U+1F1F8","image":"https:\/\/cdn.jsdelivr.net\/npm\/country-flag-emoji-json@2.0.0\/dist\/images\/SS.svg","dial_code":"+211"},{"name":"Spain","code":"ES","emoji":"\ud83c\uddea\ud83c\uddf8","unicode":"U+1F1EA U+1F1F8","image":"https:\/\/cdn.jsdelivr.net\/npm\/country-flag-emoji-json@2.0.0\/dist\/images\/ES.svg","dial_code":"+34"},{"name":"Sri Lanka","code":"LK","emoji":"\ud83c\uddf1\ud83c\uddf0","unicode":"U+1F1F1 U+1F1F0","image":"https:\/\/cdn.jsdelivr.net\/npm\/country-flag-emoji-json@2.0.0\/dist\/images\/LK.svg","dial_code":"+94"},{"name":"Sudan","code":"SD","emoji":"\ud83c\uddf8\ud83c\udde9","unicode":"U+1F1F8 U+1F1E9","image":"https:\/\/cdn.jsdelivr.net\/npm\/country-flag-emoji-json@2.0.0\/dist\/images\/SD.svg","dial_code":"+249"},{"name":"Suriname","code":"SR","emoji":"\ud83c\uddf8\ud83c\uddf7","unicode":"U+1F1F8 U+1F1F7","image":"https:\/\/cdn.jsdelivr.net\/npm\/country-flag-emoji-json@2.0.0\/dist\/images\/SR.svg","dial_code":"+597"},{"name":"Sweden","code":"SE","emoji":"\ud83c\uddf8\ud83c\uddea","unicode":"U+1F1F8 U+1F1EA","image":"https:\/\/cdn.jsdelivr.net\/npm\/country-flag-emoji-json@2.0.0\/dist\/images\/SE.svg","dial_code":"+46"},{"name":"Switzerland","code":"CH","emoji":"\ud83c\udde8\ud83c\udded","unicode":"U+1F1E8 U+1F1ED","image":"https:\/\/cdn.jsdelivr.net\/npm\/country-flag-emoji-json@2.0.0\/dist\/images\/CH.svg","dial_code":"+41"},{"name":"Taiwan","code":"TW","emoji":"\ud83c\uddf9\ud83c\uddfc","unicode":"U+1F1F9 U+1F1FC","image":"https:\/\/cdn.jsdelivr.net\/npm\/country-flag-emoji-json@2.0.0\/dist\/images\/TW.svg","dial_code":"+886"},{"name":"Tajikistan","code":"TJ","emoji":"\ud83c\uddf9\ud83c\uddef","unicode":"U+1F1F9 U+1F1EF","image":"https:\/\/cdn.jsdelivr.net\/npm\/country-flag-emoji-json@2.0.0\/dist\/images\/TJ.svg","dial_code":"+992"},{"name":"Thailand","code":"TH","emoji":"\ud83c\uddf9\ud83c\udded","unicode":"U+1F1F9 U+1F1ED","image":"https:\/\/cdn.jsdelivr.net\/npm\/country-flag-emoji-json@2.0.0\/dist\/images\/TH.svg","dial_code":"+66"},{"name":"Timor-Leste","code":"TL","emoji":"\ud83c\uddf9\ud83c\uddf1","unicode":"U+1F1F9 U+1F1F1","image":"https:\/\/cdn.jsdelivr.net\/npm\/country-flag-emoji-json@2.0.0\/dist\/images\/TL.svg","dial_code":"+670"},{"name":"Togo","code":"TG","emoji":"\ud83c\uddf9\ud83c\uddec","unicode":"U+1F1F9 U+1F1EC","image":"https:\/\/cdn.jsdelivr.net\/npm\/country-flag-emoji-json@2.0.0\/dist\/images\/TG.svg","dial_code":"+228"},{"name":"Tokelau","code":"TK","emoji":"\ud83c\uddf9\ud83c\uddf0","unicode":"U+1F1F9 U+1F1F0","image":"https:\/\/cdn.jsdelivr.net\/npm\/country-flag-emoji-json@2.0.0\/dist\/images\/TK.svg","dial_code":"+690"},{"name":"Tonga","code":"TO","emoji":"\ud83c\uddf9\ud83c\uddf4","unicode":"U+1F1F9 U+1F1F4","image":"https:\/\/cdn.jsdelivr.net\/npm\/country-flag-emoji-json@2.0.0\/dist\/images\/TO.svg","dial_code":"+676"},{"name":"Tunisia","code":"TN","emoji":"\ud83c\uddf9\ud83c\uddf3","unicode":"U+1F1F9 U+1F1F3","image":"https:\/\/cdn.jsdelivr.net\/npm\/country-flag-emoji-json@2.0.0\/dist\/images\/TN.svg","dial_code":"+216"},{"name":"Turkey","code":"TR","emoji":"\ud83c\uddf9\ud83c\uddf7","unicode":"U+1F1F9 U+1F1F7","image":"https:\/\/cdn.jsdelivr.net\/npm\/country-flag-emoji-json@2.0.0\/dist\/images\/TR.svg","dial_code":"+90"},{"name":"Turkmenistan","code":"TM","emoji":"\ud83c\uddf9\ud83c\uddf2","unicode":"U+1F1F9 U+1F1F2","image":"https:\/\/cdn.jsdelivr.net\/npm\/country-flag-emoji-json@2.0.0\/dist\/images\/TM.svg","dial_code":"+993"},{"name":"Tuvalu","code":"TV","emoji":"\ud83c\uddf9\ud83c\uddfb","unicode":"U+1F1F9 U+1F1FB","image":"https:\/\/cdn.jsdelivr.net\/npm\/country-flag-emoji-json@2.0.0\/dist\/images\/TV.svg","dial_code":"+688"},{"name":"Uganda","code":"UG","emoji":"\ud83c\uddfa\ud83c\uddec","unicode":"U+1F1FA U+1F1EC","image":"https:\/\/cdn.jsdelivr.net\/npm\/country-flag-emoji-json@2.0.0\/dist\/images\/UG.svg","dial_code":"+256"},{"name":"Ukraine","code":"UA","emoji":"\ud83c\uddfa\ud83c\udde6","unicode":"U+1F1FA U+1F1E6","image":"https:\/\/cdn.jsdelivr.net\/npm\/country-flag-emoji-json@2.0.0\/dist\/images\/UA.svg","dial_code":"+380"},{"name":"United Arab Emirates","code":"AE","emoji":"\ud83c\udde6\ud83c\uddea","unicode":"U+1F1E6 U+1F1EA","image":"https:\/\/cdn.jsdelivr.net\/npm\/country-flag-emoji-json@2.0.0\/dist\/images\/AE.svg","dial_code":"+971"},{"name":"United Kingdom","code":"GB","emoji":"\ud83c\uddec\ud83c\udde7","unicode":"U+1F1EC U+1F1E7","image":"https:\/\/cdn.jsdelivr.net\/npm\/country-flag-emoji-json@2.0.0\/dist\/images\/GB.svg","dial_code":"+44"},{"name":"United States","code":"US","emoji":"\ud83c\uddfa\ud83c\uddf8","unicode":"U+1F1FA U+1F1F8","image":"https:\/\/cdn.jsdelivr.net\/npm\/country-flag-emoji-json@2.0.0\/dist\/images\/US.svg","dial_code":"+1"},{"name":"Uruguay","code":"UY","emoji":"\ud83c\uddfa\ud83c\uddfe","unicode":"U+1F1FA U+1F1FE","image":"https:\/\/cdn.jsdelivr.net\/npm\/country-flag-emoji-json@2.0.0\/dist\/images\/UY.svg","dial_code":"+598"},{"name":"Uzbekistan","code":"UZ","emoji":"\ud83c\uddfa\ud83c\uddff","unicode":"U+1F1FA U+1F1FF","image":"https:\/\/cdn.jsdelivr.net\/npm\/country-flag-emoji-json@2.0.0\/dist\/images\/UZ.svg","dial_code":"+998"},{"name":"Vanuatu","code":"VU","emoji":"\ud83c\uddfb\ud83c\uddfa","unicode":"U+1F1FB U+1F1FA","image":"https:\/\/cdn.jsdelivr.net\/npm\/country-flag-emoji-json@2.0.0\/dist\/images\/VU.svg","dial_code":"+678"},{"name":"Vietnam","code":"VN","emoji":"\ud83c\uddfb\ud83c\uddf3","unicode":"U+1F1FB U+1F1F3","image":"https:\/\/cdn.jsdelivr.net\/npm\/country-flag-emoji-json@2.0.0\/dist\/images\/VN.svg","dial_code":"+84"},{"name":"Yemen","code":"YE","emoji":"\ud83c\uddfe\ud83c\uddea","unicode":"U+1F1FE U+1F1EA","image":"https:\/\/cdn.jsdelivr.net\/npm\/country-flag-emoji-json@2.0.0\/dist\/images\/YE.svg","dial_code":"+967"},{"name":"Zambia","code":"ZM","emoji":"\ud83c\uddff\ud83c\uddf2","unicode":"U+1F1FF U+1F1F2","image":"https:\/\/cdn.jsdelivr.net\/npm\/country-flag-emoji-json@2.0.0\/dist\/images\/ZM.svg","dial_code":"+260"},{"name":"Zimbabwe","code":"ZW","emoji":"\ud83c\uddff\ud83c\uddfc","unicode":"U+1F1FF U+1F1FC","image":"https:\/\/cdn.jsdelivr.net\/npm\/country-flag-emoji-json@2.0.0\/dist\/images\/ZW.svg","dial_code":"+263"}]